QIANFAN-89              
1 63175U 25046S   25225.55870906  .00000169  00000+0  24238-3 0  9992
2 63175  88.9865 332.5292 0018519 115.3897 244.9173 13.50966633 31042
QIANFAN-90              
1 63176U 25046T   25225.58750588  .00000178  00000+0  25673-3 0  9993
2 63176  88.9865 332.4985 0015467 113.6121 246.6656 13.50965420 31061
